[{"OBJECT_NAME":"STARLINK-35125","OBJECT_ID":"2025-200Q","EPOCH":"2026-03-09T17:42:33.422976","MEAN_MOTION":15.05647389,"ECCENTRICITY":0.000143,"INCLINATION":97.6031,"RA_OF_ASC_NODE":139.7774,"ARG_OF_PERICENTER":44.204,"MEAN_ANOMALY":315.9301,"EPHEMERIS_TYPE":0,"CLASSIFICATION_TYPE":"U","NORAD_CAT_ID":65534,"ELEMENT_SET_NO":999,"REV_AT_EPOCH":2913,"BSTAR":0.00042713843,"MEAN_MOTION_DOT":6.107e-5,"MEAN_MOTION_DDOT":0},{"OBJECT_NAME":"CZ-6A DEB","OBJECT_ID":"2024-140HV","EPOCH":"2026-03-09T13:53:09.132288","MEAN_MOTION":14.808573,"ECCENTRICITY":0.0152423,"INCLINATION":88.8878,"RA_OF_ASC_NODE":271.6068,"ARG_OF_PERICENTER":149.3328,"MEAN_ANOMALY":211.6917,"EPHEMERIS_TYPE":0,"CLASSIFICATION_TYPE":"U","NORAD_CAT_ID":60842,"ELEMENT_SET_NO":999,"REV_AT_EPOCH":8460,"BSTAR":0.00072437,"MEAN_MOTION_DOT":6.859e-5,"MEAN_MOTION_DDOT":0}]
